OBJECT_NAME,OBJECT_ID,EPOCH,MEAN_MOTION,ECCENTRICITY,INCLINATION,RA_OF_ASC_NODE,ARG_OF_PERICENTER,MEAN_ANOMALY,EPHEMERIS_TYPE,CLASSIFICATION_TYPE,NORAD_CAT_ID,ELEMENT_SET_NO,REV_AT_EPOCH,BSTAR,MEAN_MOTION_DOT,MEAN_MOTION_DDOT
ONEWEB-0572,2023-004M,2026-07-09T18:26:50.572032,13.17651024,.0002007,87.9137,1.3725,92.5116,267.6245,0,U,55151,999,17045,.24242E-3,.107E-5,0
ONEWEB-0573,2023-004N,2026-07-09T15:36:24.574752,13.18687007,.0002727,87.9180,331.0011,100.7847,259.3592,0,U,55152,999,17265,-.17719E-3,-.57E-6,0
ONEWEB-0588,2023-004P,2026-07-09T15:26:43.109664,13.18686933,.000223,87.9179,331.0018,86.8229,273.3158,0,U,55153,999,17265,.13385E-3,.66E-6,0
ONEWEB-0598,2023-004Q,2026-07-08T21:42:58.789440,13.11415042,.00024094,87.8882,16.7437,102.7860,257.3537,0,U,55154,999,16874,.95132238E-3,.35E-5,0
ONEWEB-0599,2023-004R,2026-07-08T21:28:06.648096,13.17650048,.00018122,87.9137,1.5450,98.7029,261.4307,0,U,55155,999,17034,-.96280252E-4,-.25E-6,0
ONEWEB-0614,2023-004S,2026-07-09T17:44:11.818752,13.11415934,.0001843,87.8876,16.5858,82.5787,277.5551,0,U,55156,999,16879,.16083E-2,.583E-5,0
ONEWEB-0616,2023-004T,2026-07-08T22:28:51.586752,13.17650617,.00014349,87.9137,1.5407,120.7035,239.4238,0,U,55157,999,17056,.96752977E-4,.5E-6,0
ONEWEB-0617,2023-004U,2026-07-08T23:08:25.833696,13.11418267,.00020713,87.8881,16.7327,77.5025,282.6335,0,U,55158,999,16871,.1544951E-2,.56E-5,0
ONEWEB-0618,2023-004V,2026-07-09T16:11:37.006368,15.13343997,.0011345,86.9101,168.5034,195.9411,164.1474,0,U,55159,999,18566,.18904E-3,.3405E-4,0
ONEWEB-0619,2023-004W,2026-07-08T21:25:40.956096,13.17650500,.00015152,87.9151,1.5318,83.0377,277.0927,0,U,55160,999,17045,-.1311053E-3,-.38E-6,0
ONEWEB-0620,2023-004X,2026-07-08T23:01:06.125952,13.11418600,.00020872,87.8874,16.7407,91.7768,268.3599,0,U,55161,999,16868,.10182113E-2,.374E-5,0
ONEWEB-0621,2023-004Y,2026-07-09T17:58:50.581056,13.11414860,.0001786,87.8884,16.5746,81.3340,278.7990,0,U,55162,999,16876,.90389E-3,.333E-5,0
ONEWEB-0622,2023-004Z,2026-07-09T18:06:09.997632,13.11414411,.0002332,87.8885,16.5764,74.7895,285.3490,0,U,55163,999,16875,.24548E-3,.1E-5,0
ONEWEB-0623,2023-004AA,2026-07-09T17:21:12.868704,13.17647834,.0001857,87.9130,1.3946,66.4969,293.6358,0,U,55164,999,17055,.11288E-3,.57E-6,0
ONEWEB-0624,2023-004AB,2026-07-08T21:56:48.474816,13.12928458,.00017883,87.8960,346.2605,90.9738,269.1596,0,U,55165,999,17092,-.66664854E-3,-.229E-5,0
ONEWEB-0625,2023-004AC,2026-07-09T17:06:38.276064,13.17651111,.0001734,87.9137,1.3927,94.5656,265.5674,0,U,55166,999,17054,.18383E-3,.84E-6,0
ONEWEB-0626,2023-004AD,2026-07-09T16:52:05.102976,13.17650516,.000206,87.9131,1.3945,96.3665,263.7701,0,U,55167,999,17054,.86127E-4,.46E-6,0
ONEWEB-0627,2023-004AE,2026-07-09T18:24:24.074784,13.17648200,.0001833,87.9137,1.3817,76.4294,283.7042,0,U,55168,999,17055,.17324E-3,.8E-6,0
ONEWEB-0628,2023-004AF,2026-07-08T21:41:37.851648,13.12441381,.00017003,87.8957,346.3352,71.5215,288.6099,0,U,55169,999,17088,.3535648E-3,.14E-5,0
ONEWEB-0629,2023-004AG,2026-07-09T17:49:10.314336,13.17649294,.0001574,87.9134,1.3824,86.8332,273.2979,0,U,55170,999,17055,.89809E-5,.16E-6,0
ONEWEB-0631,2023-004AH,2026-07-09T15:17:00.429792,13.18686966,.0002369,87.9192,330.9711,92.5952,267.5452,0,U,55171,999,17263,.17723E-3,.83E-6,0
ONEWEB-0709,2023-004AJ,2026-07-08T22:46:27.001632,13.11418523,.00025256,87.8875,16.7452,103.5511,256.5899,0,U,55172,999,16872,-.22948994E-3,-.69E-6,0
ONEWEB-0710,2023-004AK,2026-07-09T18:09:49.019040,13.17647297,.0001904,87.9136,1.3750,87.2591,272.8758,0,U,55173,999,17055,.53045E-4,.33E-6,0
ONEWEB-0711,2023-004AL,2026-07-08T11:05:44.105856,13.11415014,.0002135,87.8881,16.8300,69.7914,290.3443,0,U,55174,999,16862,-.10086751E-2,-.345E-5,0
ONEWEB-0713,2023-004AM,2026-07-08T22:31:47.866080,13.11416869,.00020048,87.8886,16.7373,78.7108,281.4246,0,U,55175,999,16867,-.1275868E-2,-.439E-5,0
ONEWEB-0715,2023-004AN,2026-07-09T13:03:24.518592,13.11415812,.0002466,87.8879,16.6162,94.7951,265.3458,0,U,55176,999,16879,-.15992E-2,-.554E-5,0
ONEWEB-0716,2023-004AP,2026-07-09T18:00:05.688576,13.17647365,.0001722,87.9134,1.3790,97.7506,262.3821,0,U,55177,999,17055,.25401E-3,.111E-5,0
ONEWEB-0717,2023-004AQ,2026-07-09T17:35:48.321024,13.17649725,.00022,87.9145,1.3723,78.5045,281.6333,0,U,55178,999,17060,-.12727E-3,-.37E-6,0
ONEWEB-0719,2023-004AR,2026-07-08T21:47:33.065376,13.17650200,.00016775,87.9146,1.5167,93.0750,267.0573,0,U,55179,999,17044,-.77015469E-4,-.17E-6,0
ONEWEB-0530,2023-029A,2026-07-08T16:20:05.008992,13.20772718,.00019505,87.9178,270.1846,85.9494,274.1862,0,U,55796,999,16398,-.14022522E-3,-.44E-6,0
